OBJECT_NAME,OBJECT_ID,EPOCH,MEAN_MOTION,ECCENTRICITY,INCLINATION,RA_OF_ASC_NODE,ARG_OF_PERICENTER,MEAN_ANOMALY,EPHEMERIS_TYPE,CLASSIFICATION_TYPE,NORAD_CAT_ID,ELEMENT_SET_NO,REV_AT_EPOCH,BSTAR,MEAN_MOTION_DOT,MEAN_MOTION_DDOT
STARLINK-30198,2023-096A,2024-02-07T17:20:12.742080,15.02524978,.0000435,43.0011,38.4403,324.3862,35.6951,0,U,57290,999,3314,.14441E-2,.19352E-3,0
STARLINK-30239,2023-096B,2024-02-07T17:15:24.948864,15.02533266,.0000435,43.0018,38.4143,349.3222,10.7611,0,U,57291,999,3314,.2767E-3,.3536E-4,0
STARLINK-30210,2023-096C,2024-02-07T17:10:36.830784,15.02541623,.0001068,43.0024,38.3859,283.2038,76.8685,0,U,57292,999,3302,.61534E-3,.8119E-4,0
STARLINK-30235,2023-096E,2024-02-07T17:01:01.498368,15.02548713,.0000519,43.0044,38.3353,309.2506,50.8290,0,U,57294,999,3314,.17446E-2,.2345E-3,0
STARLINK-30206,2023-096F,2024-02-07T17:24:59.514048,15.02542852,.0001139,43.0017,38.4278,315.4400,44.6350,0,U,57295,999,3314,.89242E-3,.11874E-3,0
STARLINK-30238,2023-096G,2024-02-07T16:56:14.073216,15.02547712,.0000972,43.0032,38.3115,284.5327,75.5407,0,U,57296,999,3316,.13089E-2,.17527E-3,0
STARLINK-30241,2023-096J,2024-02-07T16:13:04.380960,15.02542807,.0001229,43.0021,38.0638,271.5491,88.5211,0,U,57298,999,3314,.1065E-2,.14215E-3,0
STARLINK-30199,2023-096K,2024-02-07T16:46:38.411616,15.02542374,.0000751,43.0034,38.2588,273.1583,86.9173,0,U,57299,999,3314,.81162E-3,.10779E-3,0
STARLINK-30236,2023-096L,2024-02-07T16:41:50.948448,15.02544833,.0000961,43.0033,38.2330,275.6744,84.3989,0,U,57300,999,3318,.12982E-2,.1738E-3,0
STARLINK-30201,2023-096M,2024-02-07T16:37:03.512928,15.02541004,.0000686,43.0033,38.2090,22.6819,337.4054,0,U,57301,999,3224,.88898E-3,.11827E-3,0
STARLINK-30233,2023-096N,2024-02-07T16:32:14.500608,15.02565924,.0000928,42.9995,38.1582,339.6400,20.4406,0,U,57302,999,3224,-.15975E-3,-.2362E-4,0
STARLINK-30232,2023-096P,2024-02-07T16:27:27.567072,15.02545710,.0000937,43.0046,38.1717,269.8495,90.2240,0,U,57303,999,3300,.78146E-3,.10371E-3,0
STARLINK-30211,2023-096Q,2024-02-07T16:22:39.979488,15.02540051,.0000675,43.0052,38.1243,247.6413,112.4358,0,U,57304,999,3224,.73112E-3,.9687E-4,0
STARLINK-30177,2023-096R,2024-02-07T16:17:52.316736,15.02546240,.0000678,43.0012,38.1050,312.0806,47.9979,0,U,57305,999,3224,.12056E-2,.16124E-3,0
STARLINK-30209,2023-096T,2024-02-07T04:58:10.660512,15.02554987,.0001186,43.0036,40.5737,259.6602,100.4107,0,U,57307,999,3217,.64139E-3,.8475E-4,0
STARLINK-30194,2023-096U,2024-02-07T09:40:34.093632,15.02559021,.0001134,43.0038,39.4766,250.1670,109.9050,0,U,57308,999,3219,.18201E-2,.24484E-3,0
STARLINK-30163,2023-096V,2024-02-07T09:35:46.506048,15.02549093,.0001283,43.0038,39.4520,222.3562,137.7182,0,U,57309,999,3219,.16964E-2,.22794E-3,0
STARLINK-30175,2023-096X,2024-02-07T04:43:47.415648,15.02528706,.0001712,43.0047,40.5081,230.6588,129.4102,0,U,57311,999,3217,.83944E-3,.11152E-3,0
STARLINK-6138,2023-099B,2024-02-07T18:43:56.847648,15.02539949,.000117,43.0042,63.7541,266.8035,93.2673,0,U,57329,999,3165,.24378E-3,.3091E-4,0
STARLINK-6212,2023-099C,2024-02-07T18:53:32.580096,15.02538709,.000079,43.0033,63.8032,312.4679,47.6097,0,U,57330,999,3165,.54957E-3,.7228E-4,0
STARLINK-6234,2023-099D,2024-02-07T18:51:57.758688,15.02535499,.0001805,43.0045,63.7962,267.0487,93.0149,0,U,57331,999,3165,.43795E-3,.5717E-4,0
STARLINK-5831,2023-099E,2024-02-07T18:48:44.488800,15.02547765,.0001193,43.0027,63.7756,278.1070,81.9637,0,U,57332,999,3165,.70125E-3,.9285E-4,0
