STARLINK-30198          
1 57290U 23096A   24038.72236970  .00019352  00000+0  14441-2 0  9991
2 57290  43.0011  38.4403 0000435 324.3862  35.6951 15.02524978 32047
STARLINK-30239          
1 57291U 23096B   24038.71903876  .00003536  00000+0  27670-3 0  9993
2 57291  43.0018  38.4143 0000435 349.3222  10.7611 15.02533266 32040
STARLINK-30210          
1 57292U 23096C   24038.71570406  .00008119  00000+0  61534-3 0  9992
2 57292  43.0024  38.3859 0001068 283.2038  76.8685 15.02541623 32056
STARLINK-30235          
1 57294U 23096E   24038.70904512  .00023450  00000+0  17446-2 0  9999
2 57294  43.0044  38.3353 0000519 309.2506  50.8290 15.02548713 32048
STARLINK-30206          
1 57295U 23096F   24038.72568882  .00011874  00000+0  89242-3 0  9999
2 57295  43.0017  38.4278 0001139 315.4400  44.6350 15.02542852 32054
STARLINK-30238          
1 57296U 23096G   24038.70571844  .00017527  00000+0  13089-2 0  9996
2 57296  43.0032  38.3115 0000972 284.5327  75.5407 15.02547712 32044
STARLINK-30241          
1 57298U 23096J   24038.67574515  .00014215  00000+0  10650-2 0  9994
2 57298  43.0021  38.0638 0001229 271.5491  88.5211 15.02542807 32053
STARLINK-30199          
1 57299U 23096K   24038.69905569  .00010779  00000+0  81162-3 0  9992
2 57299  43.0034  38.2588 0000751 273.1583  86.9173 15.02542374 32152
STARLINK-30236          
1 57300U 23096L   24038.69572857  .00017380  00000+0  12982-2 0  9993
2 57300  43.0033  38.2330 0000961 275.6744  84.3989 15.02544833 32056
STARLINK-30201          
1 57301U 23096M   24038.69240177  .00011827  00000+0  88898-3 0  9991
2 57301  43.0033  38.2090 0000686  22.6819 337.4054 15.02541004 32048
STARLINK-30233          
1 57302U 23096N   24038.68905672 -.00002362  00000+0 -15975-3 0  9991
2 57302  42.9995  38.1582 0000928 339.6400  20.4406 15.02565924 32053
STARLINK-30232          
1 57303U 23096P   24038.68573573  .00010371  00000+0  78146-3 0  9999
2 57303  43.0046  38.1717 0000937 269.8495  90.2240 15.02545710 32053
STARLINK-30211          
1 57304U 23096Q   24038.68240717  .00009687  00000+0  73112-3 0  9997
2 57304  43.0052  38.1243 0000675 247.6413 112.4358 15.02540051 32058
STARLINK-30177          
1 57305U 23096R   24038.67907774  .00016124  00000+0  12056-2 0  9993
2 57305  43.0012  38.1050 0000678 312.0806  47.9979 15.02546240 32043
STARLINK-30209          
1 57307U 23096T   24038.20706783  .00008475  00000+0  64139-3 0  9991
2 57307  43.0036  40.5737 0001186 259.6602 100.4107 15.02554987 32174
STARLINK-30194          
1 57308U 23096U   24038.40317238  .00024484  00000+0  18201-2 0  9993
2 57308  43.0038  39.4766 0001134 250.1670 109.9050 15.02559021 32197
STARLINK-30163          
1 57309U 23096V   24038.39984382  .00022794  00000+0  16964-2 0  9998
2 57309  43.0038  39.4520 0001283 222.3562 137.7182 15.02549093 32195
STARLINK-30175          
1 57311U 23096X   24038.19707657  .00011152  00000+0  83944-3 0  9996
2 57311  43.0047  40.5081 0001712 230.6588 129.4102 15.02528706 32176
STARLINK-6138           
1 57329U 23099B   24038.78051907  .00003091  00000+0  24378-3 0  9992
2 57329  43.0042  63.7541 0001170 266.8035  93.2673 15.02539949 32390
STARLINK-6212           
1 57330U 23099C   24038.78718264  .00007228  00000+0  54957-3 0  9992
2 57330  43.0033  63.8032 0000790 312.4679  47.6097 15.02538709 32393
STARLINK-6234           
1 57331U 23099D   24038.78608517  .00005717  00000+0  43795-3 0  9991
2 57331  43.0045  63.7962 0001805 267.0487  93.0149 15.02535499 32136
STARLINK-5831           
1 57332U 23099E   24038.78384825  .00009285  00000+0  70125-3 0  9996
2 57332  43.0027  63.7756 0001193 278.1070  81.9637 15.02547765 32394
